start=new Date('2022-10-18T00:00:00.000Z').valueOf();
sats=[{"CLASSIFICATION_TYPE":"U","OBJECT_TYPE":"PAYLOAD","REV_AT_EPOCH":"130","OBJECT_NAME":"STARLINK-4766","MEAN_MOTION_DOT":"-0.00062148","SITE":"AFETR","FILE":"3620294","TIME_SYSTEM":"UTC","CENTER_NAME":"EARTH","EPHEMERIS_TYPE":"0","DECAY_DATE":null,"RA_OF_ASC_NODE":"115.8917","SEMIMAJOR_AXIS":"6727.804","EPOCH":"2022-10-17T22:00:00.999936","ELEMENT_SET_NO":"999","INCLINATION":"53.2156","ECCENTRICITY":"0.00010880","ARG_OF_PERICENTER":"90.5092","BSTAR":"-0.00044107000000","COUNTRY_CODE":"US","TLE_LINE1":"1 53840U 22114Y   22290.91667824 -.00062148  00000-0 -44107-3 0  9990","MEAN_MOTION_DDOT":"0.0000000000000","NORAD_CAT_ID":"53840","PERIAPSIS":"348.937","OBJECT_ID":"2022-114Y","REF_FRAME":"TEME","MEAN_ANOMALY":"56.9170","GP_ID":"215451548","TLE_LINE2":"2 53840  53.2156 115.8917 0001088  90.5092  56.9170 15.73231939  1303","PERIOD":"91.531","APOAPSIS":"350.401","MEAN_MOTION":"15.73231939","RCS_SIZE":"LARGE","MEAN_ELEMENT_THEORY":"SGP4","LAUNCH_DATE":"2022-09-19"},{"MEAN_ANOMALY":"69.1725","GP_ID":"215452285","TLE_LINE2":"2 53841  53.2142 115.8955 0001207  77.0640  69.1725 15.73205162  1304","OBJECT_ID":"2022-114Z","REF_FRAME":"TEME","PERIAPSIS":"348.933","NORAD_CAT_ID":"53841","MEAN_MOTION_DDOT":"0.0000000000000","LAUNCH_DATE":"2022-09-19","RCS_SIZE":"LARGE","MEAN_ELEMENT_THEORY":"SGP4","APOAPSIS":"350.558","MEAN_MOTION":"15.73205162","PERIOD":"91.533","OBJECT_NAME":"STARLINK-4750","REV_AT_EPOCH":"130","OBJECT_TYPE":"PAYLOAD","CLASSIFICATION_TYPE":"U","BSTAR":"0.00001722000000","COUNTRY_CODE":"US","TLE_LINE1":"1 53841U 22114Z   22290.91667824  .00001798  00000-0  17220-4 0  9990","INCLINATION":"53.2142","ECCENTRICITY":"0.00012070","ELEMENT_SET_NO":"999","EPOCH":"2022-10-17T22:00:00.999936","ARG_OF_PERICENTER":"77.0640","DECAY_DATE":null,"RA_OF_ASC_NODE":"115.8955","SEMIMAJOR_AXIS":"6727.880","MEAN_MOTION_DOT":"0.00001798","SITE":"AFETR","FILE":"3620294","CENTER_NAME":"EARTH","TIME_SYSTEM":"UTC","EPHEMERIS_TYPE":"0"},{"LAUNCH_DATE":"2022-09-19","MEAN_ELEMENT_THEORY":"SGP4","RCS_SIZE":"LARGE","MEAN_MOTION":"15.73256069","APOAPSIS":"350.410","PERIOD":"91.530","TLE_LINE2":"2 53842  53.2157 115.8891 0001203  69.6514  78.8917 15.73256069  1305","GP_ID":"215451801","MEAN_ANOMALY":"78.8917","REF_FRAME":"TEME","OBJECT_ID":"2022-114AA","PERIAPSIS":"348.791","NORAD_CAT_ID":"53842","MEAN_MOTION_DDOT":"0.0000000000000","COUNTRY_CODE":"US","TLE_LINE1":"1 53842U 22114AA  22290.91667824 -.00055456  00000-0 -39237-3 0  9994","BSTAR":"-0.00039237000000","ARG_OF_PERICENTER":"69.6514","EPOCH":"2022-10-17T22:00:00.999936","INCLINATION":"53.2157","ECCENTRICITY":"0.00012030","ELEMENT_SET_NO":"999","SEMIMAJOR_AXIS":"6727.735","RA_OF_ASC_NODE":"115.8891","DECAY_DATE":null,"FILE":"3620294","TIME_SYSTEM":"UTC","CENTER_NAME":"EARTH","EPHEMERIS_TYPE":"0","MEAN_MOTION_DOT":"-0.00055456","SITE":"AFETR","OBJECT_NAME":"STARLINK-4754","REV_AT_EPOCH":"130","OBJECT_TYPE":"PAYLOAD","CLASSIFICATION_TYPE":"U"},{"REV_AT_EPOCH":"513","OBJECT_NAME":"STARLINK-4769","CLASSIFICATION_TYPE":"U","OBJECT_TYPE":"PAYLOAD","ELEMENT_SET_NO":"999","EPOCH":"2022-10-18T00:00:00.999648","INCLINATION":"53.2149","ECCENTRICITY":"0.00011410","ARG_OF_PERICENTER":"73.2119","BSTAR":"-0.00001230800000","TLE_LINE1":"1 53843U 22114AB  22291.00001157 -.00002348  00000-0 -12308-4 0  9990","COUNTRY_CODE":"US","MEAN_MOTION_DOT":"-0.00002348","SITE":"AFETR","FILE":"3620132","CENTER_NAME":"EARTH","EPHEMERIS_TYPE":"0","TIME_SYSTEM":"UTC","DECAY_DATE":null,"RA_OF_ASC_NODE":"115.4800","SEMIMAJOR_AXIS":"6727.856","OBJECT_ID":"2022-114AB","REF_FRAME":"TEME","MEAN_ANOMALY":"185.8703","GP_ID":"215424121","TLE_LINE2":"2 53843  53.2149 115.4800 0001141  73.2119 185.8703 15.73213702  5130","MEAN_MOTION_DDOT":"0.0000000000000","NORAD_CAT_ID":"53843","PERIAPSIS":"348.953","RCS_SIZE":"LARGE","MEAN_ELEMENT_THEORY":"SGP4","LAUNCH_DATE":"2022-09-19","PERIOD":"91.532","APOAPSIS":"350.489","MEAN_MOTION":"15.73213702"},{"REF_FRAME":"TEME","OBJECT_ID":"2022-114AC","MEAN_ANOMALY":"75.4336","TLE_LINE2":"2 53844  53.2141 115.8881 0001093  74.3994  75.4336 15.73197761  1302","GP_ID":"215451967","MEAN_MOTION_DDOT":"0.0000000000000","NORAD_CAT_ID":"53844","PERIAPSIS":"349.031","MEAN_ELEMENT_THEORY":"SGP4","RCS_SIZE":"LARGE","LAUNCH_DATE":"2022-09-19","PERIOD":"91.533","MEAN_MOTION":"15.73197761","APOAPSIS":"350.502","REV_AT_EPOCH":"130","OBJECT_NAME":"STARLINK-4745","CLASSIFICATION_TYPE":"U","OBJECT_TYPE":"PAYLOAD","ARG_OF_PERICENTER":"74.3994","ECCENTRICITY":"0.00010930","EPOCH":"2022-10-17T22:00:00.999936","INCLINATION":"53.2141","ELEMENT_SET_NO":"999","TLE_LINE1":"1 53844U 22114AC  22290.91667824 -.00007496  00000-0 -49047-4 0  9998","COUNTRY_CODE":"US","BSTAR":"-0.00004904700000","SITE":"AFETR","MEAN_MOTION_DOT":"-0.00007496","EPHEMERIS_TYPE":"0","FILE":"3620294","CENTER_NAME":"EARTH","TIME_SYSTEM":"UTC","DECAY_DATE":null,"SEMIMAJOR_AXIS":"6727.902","RA_OF_ASC_NODE":"115.8881"},{"OBJECT_NAME":"STARLINK-4753","REV_AT_EPOCH":"130","OBJECT_TYPE":"PAYLOAD","CLASSIFICATION_TYPE":"U","BSTAR":"-0.00024140000000","TLE_LINE1":"1 53845U 22114AD  22290.91667824 -.00034392  00000-0 -24140-3 0  9990","COUNTRY_CODE":"US","ECCENTRICITY":"0.00012230","INCLINATION":"53.2148","ELEMENT_SET_NO":"999","EPOCH":"2022-10-17T22:00:00.999936","ARG_OF_PERICENTER":"67.9178","DECAY_DATE":null,"RA_OF_ASC_NODE":"115.8949","SEMIMAJOR_AXIS":"6727.832","MEAN_MOTION_DOT":"-0.00034392","SITE":"AFETR","FILE":"3620294","EPHEMERIS_TYPE":"0","TIME_SYSTEM":"UTC","CENTER_NAME":"EARTH","MEAN_ANOMALY":"80.1370","GP_ID":"215452530","TLE_LINE2":"2 53845  53.2148 115.8949 0001223  67.9178  80.1370 15.73222321  1304","OBJECT_ID":"2022-114AD","REF_FRAME":"TEME","PERIAPSIS":"348.874","NORAD_CAT_ID":"53845","MEAN_MOTION_DDOT":"0.0000000000000","LAUNCH_DATE":"2022-09-19","RCS_SIZE":"LARGE","MEAN_ELEMENT_THEORY":"SGP4","APOAPSIS":"350.519","MEAN_MOTION":"15.73222321","PERIOD":"91.532"},{"MEAN_MOTION":"15.73227193","APOAPSIS":"350.378","PERIOD":"91.532","LAUNCH_DATE":"2022-09-19","MEAN_ELEMENT_THEORY":"SGP4","RCS_SIZE":"LARGE","PERIAPSIS":"348.988","MEAN_MOTION_DDOT":"0.0000000000000","NORAD_CAT_ID":"53846","TLE_LINE2":"2 53846  53.2149 115.8888 0001033  90.8237  60.2111 15.73227193  1302","GP_ID":"215451383","MEAN_ANOMALY":"60.2111","REF_FRAME":"TEME","OBJECT_ID":"2022-114AE","SEMIMAJOR_AXIS":"6727.818","RA_OF_ASC_NODE":"115.8888","DECAY_DATE":null,"FILE":"3620294","EPHEMERIS_TYPE":"0","TIME_SYSTEM":"UTC","CENTER_NAME":"EARTH","MEAN_MOTION_DOT":"-0.00049736","SITE":"AFETR","COUNTRY_CODE":"US","TLE_LINE1":"1 53846U 22114AE  22290.91667824 -.00049736  00000-0 -35165-3 0  9998","BSTAR":"-0.00035165000000","ARG_OF_PERICENTER":"90.8237","ECCENTRICITY":"0.00010330","EPOCH":"2022-10-17T22:00:00.999936","ELEMENT_SET_NO":"999","INCLINATION":"53.2149","OBJECT_TYPE":"PAYLOAD","CLASSIFICATION_TYPE":"U","OBJECT_NAME":"STARLINK-4746","REV_AT_EPOCH":"130"},{"REF_FRAME":"TEME","OBJECT_ID":"2022-114AF","MEAN_ANOMALY":"85.6859","TLE_LINE2":"2 53847  53.2141 115.8877 0001075  63.5301  85.6859 15.73230600  1305","GP_ID":"215452378","NORAD_CAT_ID":"53847","MEAN_MOTION_DDOT":"0.0000000000000","PERIAPSIS":"348.950","MEAN_ELEMENT_THEORY":"SGP4","RCS_SIZE":"LARGE","LAUNCH_DATE":"2022-09-19","PERIOD":"91.531","MEAN_MOTION":"15.73230600","APOAPSIS":"350.396","REV_AT_EPOCH":"130","OBJECT_NAME":"STARLINK-4777","CLASSIFICATION_TYPE":"U","OBJECT_TYPE":"PAYLOAD","ARG_OF_PERICENTER":"63.5301","INCLINATION":"53.2141","ECCENTRICITY":"0.00010750","EPOCH":"2022-10-17T22:00:00.999936","ELEMENT_SET_NO":"999","TLE_LINE1":"1 53847U 22114AF  22290.91667824 -.00038679  00000-0 -27209-3 0  9993","COUNTRY_CODE":"US","BSTAR":"-0.00027209000000","MEAN_MOTION_DOT":"-0.00038679","SITE":"AFETR","EPHEMERIS_TYPE":"0","FILE":"3620294","CENTER_NAME":"EARTH","TIME_SYSTEM":"UTC","DECAY_DATE":null,"SEMIMAJOR_AXIS":"6727.808","RA_OF_ASC_NODE":"115.8877"},{"APOAPSIS":"350.343","MEAN_MOTION":"15.73217192","PERIOD":"91.532","LAUNCH_DATE":"2022-09-19","RCS_SIZE":"LARGE","MEAN_ELEMENT_THEORY":"SGP4","PERIAPSIS":"349.079","MEAN_MOTION_DDOT":"0.0000000000000","NORAD_CAT_ID":"53848","GP_ID":"215451549","TLE_LINE2":"2 53848  53.2142 115.8826 0000939  79.7870  72.3977 15.73217192  1304","MEAN_ANOMALY":"72.3977","OBJECT_ID":"2022-114AG","REF_FRAME":"TEME","RA_OF_ASC_NODE":"115.8826","SEMIMAJOR_AXIS":"6727.846","DECAY_DATE":null,"FILE":"3620294","CENTER_NAME":"EARTH","TIME_SYSTEM":"UTC","EPHEMERIS_TYPE":"0","MEAN_MOTION_DOT":"-0.00020835","SITE":"AFETR","BSTAR":"-0.00014430000000","COUNTRY_CODE":"US","TLE_LINE1":"1 53848U 22114AG  22290.91667824 -.00020835  00000-0 -14430-3 0  9991","EPOCH":"2022-10-17T22:00:00.999936","ECCENTRICITY":"0.00009390","ELEMENT_SET_NO":"999","INCLINATION":"53.2142","ARG_OF_PERICENTER":"79.7870","OBJECT_TYPE":"PAYLOAD","CLASSIFICATION_TYPE":"U","OBJECT_NAME":"STARLINK-4780","REV_AT_EPOCH":"130"},{"RCS_SIZE":"LARGE","MEAN_ELEMENT_THEORY":"SGP4","LAUNCH_DATE":"2022-09-19","PERIOD":"91.531","APOAPSIS":"350.499","MEAN_MOTION":"15.73236935","OBJECT_ID":"2022-114AH","REF_FRAME":"TEME","GP_ID":"215452286","TLE_LINE2":"2 53849  53.2149 115.8904 0001255  86.7472  63.6548 15.73236935  1300","MEAN_ANOMALY":"63.6548","MEAN_MOTION_DDOT":"0.0000000000000","NORAD_CAT_ID":"53849","PERIAPSIS":"348.811","EPOCH":"2022-10-17T22:00:00.999936","INCLINATION":"53.2149","ECCENTRICITY":"0.00012550","ELEMENT_SET_NO":"999","ARG_OF_PERICENTER":"86.7472","BSTAR":"-0.00020951000000","COUNTRY_CODE":"US","TLE_LINE1":"1 53849U 22114AH  22290.91667824 -.00029965  00000-0 -20951-3 0  9990","FILE":"3620294","CENTER_NAME":"EARTH","TIME_SYSTEM":"UTC","EPHEMERIS_TYPE":"0","MEAN_MOTION_DOT":"-0.00029965","SITE":"AFETR","RA_OF_ASC_NODE":"115.8904","SEMIMAJOR_AXIS":"6727.790","DECAY_DATE":null,"REV_AT_EPOCH":"130","OBJECT_NAME":"STARLINK-4770","CLASSIFICATION_TYPE":"U","OBJECT_TYPE":"PAYLOAD"}];
